NORAD_CAT_ID,OBJECT_NAME,OBJECT_TYPE,EPOCH,MEAN_MOTION,ECCENTRICITY,INCLINATION,RA_OF_ASC_NODE,ARG_OF_PERICENTER,MEAN_ANOMALY,BSTAR,MEAN_MOTION_DOT,MEAN_MOTION_DDOT,TLE_LINE0,TLE_LINE1,TLE_LINE2,SEMIMAJOR_AXIS,PERIOD,APOGEE,PERIGEE,DECAYED
51131.0,STARLINK-3388,PAYLOAD,2024-07-12 13:39:48,15.08848111,0.0001412,53.2171,135.6146,86.9315,273.1839,8.2554e-05,1.026e-05,0.0,0 STARLINK-3388,1 51131U 22005AD  24194.56930676  .00001026  00000-0  82554-4 0  9999,2 51131  53.2171 135.6146 0001412  86.9315 273.1839 15.08848111137379,6917.856,95.437,540.697,538.744,0.0
51131.0,STARLINK-3388,PAYLOAD,2024-07-13 02:22:53,15.08829583,0.0001219,53.2194,133.2311,112.2613,247.8508,0.00019539,2.822e-05,0.0,0 STARLINK-3388,1 51131U 22005AD  24195.09923398  .00002822  00000-0  19539-3 0  9998,2 51131  53.2194 133.2311 0001219 112.2613 247.8508 15.08829583138577,6917.912,95.438,540.621,538.934,0.0
51131.0,STARLINK-3388,PAYLOAD,2024-07-13 13:30:35,15.08845038,0.0001606,53.2186,131.1501,104.19,255.927,4.4554e-05,4.21e-06,0.0,0 STARLINK-3388,1 51131U 22005AD  24195.56290819  .00000421  00000-0  44554-4 0  9994,2 51131  53.2186 131.1501 0001606 104.1900 255.9270 15.08845038137528,6917.865,95.437,540.841,538.619,0.0
51131.0,STARLINK-3388,PAYLOAD,2024-07-13 19:52:08,15.08842225,0.0001762,53.2191,129.9615,107.4472,252.6713,9.7223e-06,-1.33e-06,0.0,0 STARLINK-3388,1 51131U 22005AD  24195.82787124 -.00000133  00000-0  97223-5 0  9996,2 51131  53.2191 129.9615 0001762 107.4472 252.6713 15.08842225138687,6917.874,95.437,540.958,538.52,0.0
51131.0,STARLINK-3388,PAYLOAD,2024-07-14 05:24:26,15.08843063,0.0001554,53.2183,128.179,94.0651,266.0519,1.3141e-05,-7.9e-07,0.0,0 STARLINK-3388,1 51131U 22005AD  24196.22531061 -.00000079  00000-0  13141-4 0  9993,2 51131  53.2183 128.1790 0001554  94.0651 266.0519 15.08843063137629,6917.871,95.437,540.811,538.661,0.0
51131.0,STARLINK-3388,PAYLOAD,2024-07-14 22:53:41,15.08833694,0.0001525,53.217,124.9067,98.148,261.9685,1.6801e-05,-2.1e-07,0.0,0 STARLINK-3388,1 51131U 22005AD  24196.95395747 -.00000021  00000-0  16801-4 0  9995,2 51131  53.2170 124.9067 0001525  98.1480 261.9685 15.08833694137738,6917.9,95.438,540.82,538.71,0.0
51131.0,STARLINK-3388,PAYLOAD,2024-07-15 02:04:28,15.08832997,0.00015,53.2173,124.3098,101.272,258.8441,5.6571e-06,-1.98e-06,0.0,0 STARLINK-3388,1 51131U 22005AD  24197.08643835 -.00000198  00000-0  56571-5 0  9998,2 51131  53.2173 124.3098 0001500 101.2720 258.8441 15.08832997138871,6917.902,95.438,540.804,538.729,0.0
51131.0,STARLINK-3388,PAYLOAD,2024-07-15 11:36:46,15.08845266,0.0001438,53.2175,122.5304,102.2126,257.9027,5.2019e-05,5.4e-06,0.0,0 STARLINK-3388,1 51131U 22005AD  24197.48386979  .00000540  00000-0  52019-4 0  9997,2 51131  53.2175 122.5304 0001438 102.2126 257.9027 15.08845266138934,6917.864,95.437,540.724,538.735,0.0
51131.0,STARLINK-3388,PAYLOAD,2024-07-15 22:44:29,15.08829545,0.0001647,53.2182,120.4513,100.8944,259.2234,3.8763e-05,3.29e-06,0.0,0 STARLINK-3388,1 51131U 22005AD  24197.94756165  .00000329  00000-0  38763-4 0  9991,2 51131  53.2182 120.4513 0001647 100.8944 259.2234 15.08829545137885,6917.912,95.438,540.917,538.638,0.0
51131.0,STARLINK-3388,PAYLOAD,2024-07-16 01:55:15,15.08830667,0.0001461,53.2179,119.859,97.8698,262.246,7.584e-05,9.19e-06,0.0,0 STARLINK-3388,1 51131U 22005AD  24198.08004073  .00000919  00000-0  75840-4 0  9993,2 51131  53.2179 119.8590 0001461  97.8698 262.2460 15.08830667139023,6917.909,95.438,540.785,538.763,0.0
51131.0,STARLINK-3388,PAYLOAD,2024-07-16 22:35:15,15.08841022,0.0001897,53.2186,115.9926,124.7869,235.3302,0.0001545,2.172e-05,0.0,0 STARLINK-3388,1 51131U 22005AD  24198.94115082  .00002172  00000-0  15450-3 0  9994,2 51131  53.2186 115.9926 0001897 124.7869 235.3302 15.08841022138037,6917.877,95.437,541.055,538.43,0.0
51131.0,STARLINK-3388,PAYLOAD,2024-07-17 03:21:24,15.08847328,0.000139,53.2179,115.0975,102.6845,257.4303,0.00013806,1.91e-05,0.0,0 STARLINK-3388,1 51131U 22005AD  24199.13986777  .00001910  00000-0  13806-3 0  9995,2 51131  53.2179 115.0975 0001390 102.6845 257.4303 15.08847328139189,6917.858,95.437,540.685,538.761,0.0
51131.0,STARLINK-3388,PAYLOAD,2024-07-17 11:18:19,15.08861777,0.0001286,53.2177,113.6111,84.309,275.8049,0.00020705,3.011e-05,0.0,0 STARLINK-3388,1 51131U 22005AD  24199.47105558  .00003011  00000-0  20705-3 0  9992,2 51131  53.2177 113.6111 0001286  84.3090 275.8049 15.08861777139236,6917.814,95.436,540.568,538.789,0.0
51131.0,STARLINK-3388,PAYLOAD,2024-07-17 22:26:04,15.08821878,0.0001548,53.2181,111.5322,95.9655,264.1513,-5.2097e-05,-1.117e-05,0.0,0 STARLINK-3388,1 51131U 22005AD  24199.93477091 -.00001117  00000-0 -52097-4 0  9994,2 51131  53.2181 111.5322 0001548  95.9655 264.1513 15.08821878138186,6917.936,95.439,540.872,538.73,0.0
51131.0,STARLINK-3388,PAYLOAD,2024-07-18 01:36:50,15.08828136,0.0001517,53.2176,110.9333,80.3523,279.7641,-9.4177e-05,-1.786e-05,0.0,0 STARLINK-3388,1 51131U 22005AD  24200.06724964 -.00001786  00000-0 -94177-4 0  9992,2 51131  53.2176 110.9333 0001517  80.3523 279.7641 15.08828136139328,6917.917,95.438,540.831,538.732,0.0
51131.0,STARLINK-3388,PAYLOAD,2024-07-18 22:16:50,15.08828713,0.0001338,53.2171,107.0649,109.1419,250.9718,3.9373e-05,3.39e-06,0.0,0 STARLINK-3388,1 51131U 22005AD  24200.92836636  .00000339  00000-0  39373-4 0  9995,2 51131  53.2171 107.0649 0001338 109.1419 250.9718 15.08828713138332,6917.915,95.438,540.706,538.854,0.0
51131.0,STARLINK-3388,PAYLOAD,2024-07-19 03:03:00,15.08841029,0.000145,53.2171,106.1693,73.004,287.1111,-1.5549e-05,-5.35e-06,0.0,0 STARLINK-3388,1 51131U 22005AD  24201.12708390 -.00000535  00000-0 -15549-4 0  9992,2 51131  53.2171 106.1693 0001450  73.0040 287.1111 15.08841029139486,6917.877,95.437,540.745,538.739,0.0
51131.0,STARLINK-3388,PAYLOAD,2024-07-19 10:59:54,15.0885577,0.0001338,53.2179,104.6899,72.832,287.2819,4.5498e-05,4.37e-06,0.0,0 STARLINK-3388,1 51131U 22005AD  24201.45827258  .00000437  00000-0  45498-4 0  9998,2 51131  53.2179 104.6899 0001338  72.8320 287.2819 15.08855770139538,6917.832,95.437,540.623,538.772,0.0
51131.0,STARLINK-3388,PAYLOAD,2024-07-19 22:07:37,15.0883132,0.0001978,53.218,102.6021,77.5164,282.6049,0.00023286,3.419e-05,0.0,0 STARLINK-3388,1 51131U 22005AD  24201.92196389  .00003419  00000-0  23286-3 0  9997,2 51131  53.2180 102.6021 0001978  77.5164 282.6049 15.08831320138485,6917.907,95.438,541.14,538.404,0.0
51131.0,STARLINK-3388,PAYLOAD,2024-07-19 23:43:01,15.08824376,0.0001279,53.2181,102.3075,72.718,287.3952,0.00015129,2.12e-05,0.0,0 STARLINK-3388,1 51131U 22005AD  24201.98821288  .00002120  00000-0  15129-3 0  9991,2 51131  53.2181 102.3075 0001279  72.7180 287.3952 15.08824376139615,6917.928,95.439,540.678,538.908,0.0
51131.0,STARLINK-3388,PAYLOAD,2024-07-20 10:50:41,15.08848652,0.0001361,53.2178,100.2282,75.0195,285.0948,0.00022415,3.282e-05,0.0,0 STARLINK-3388,1 51131U 22005AD  24202.45187237  .00003282  00000-0  22415-3 0  9999,2 51131  53.2178 100.2282 0001361  75.0195 285.0948 15.08848652139682,6917.854,95.437,540.66,538.777,0.0
51131.0,STARLINK-3388,PAYLOAD,2024-07-20 20:23:02,15.08831051,0.0001227,53.2165,98.4416,113.2859,246.8263,-2.8047e-05,-7.34e-06,0.0,0 STARLINK-3388,1 51131U 22005AD  24202.84933131 -.00000734  00000-0 -28047-4 0  9993,2 51131  53.2165  98.4416 0001227 113.2859 246.8263 15.08831051139745,6917.908,95.438,540.622,538.924,0.0
51131.0,STARLINK-3388,PAYLOAD,2024-07-20 21:58:25,15.08834649,0.0001401,53.2169,98.1435,111.143,248.9712,3.1845e-06,-2.37e-06,0.0,0 STARLINK-3388,1 51131U 22005AD  24202.91556850 -.00000237  00000-0  31845-5 0  9998,2 51131  53.2169  98.1435 0001401 111.1430 248.9712 15.08834649138638,6917.897,95.438,540.731,538.793,0.0
51131.0,STARLINK-3388,PAYLOAD,2024-07-21 02:44:34,15.088375,0.0001474,53.2176,97.2488,112.8467,247.2681,3.412e-05,2.55e-06,0.0,0 STARLINK-3388,1 51131U 22005AD  24203.11428597  .00000255  00000-0  34120-4 0  9994,2 51131  53.2176  97.2488 0001474 112.8467 247.2681 15.08837500139785,6917.888,95.438,540.773,538.733,0.0
51131.0,STARLINK-3388,PAYLOAD,2024-07-21 21:49:12,15.08836617,0.0001473,53.2177,93.6808,108.61,251.5053,6.3661e-05,7.25e-06,0.0,0 STARLINK-3388,1 51131U 22005AD  24203.90916701  .00000725  00000-0  63661-4 0  9994,2 51131  53.2177  93.6808 0001473 108.6100 251.5053 15.08836617138786,6917.891,95.438,540.775,538.737,0.0
51131.0,STARLINK-3388,PAYLOAD,2024-07-21 23:24:35,15.08839881,0.0001563,53.2176,93.3835,110.5622,249.5538,1.3377e-05,-7.5e-07,0.0,0 STARLINK-3388,1 51131U 22005AD  24203.97540674 -.00000075  00000-0  13377-4 0  9991,2 51131  53.2176  93.3835 0001563 110.5622 249.5538 15.08839881138795,6917.881,95.438,540.827,538.664,0.0
51131.0,STARLINK-3388,PAYLOAD,2024-07-22 16:53:49,15.08836497,0.0001622,53.2175,90.1119,117.3433,242.7724,0.00014981,2.097e-05,0.0,0 STARLINK-3388,1 51131U 22005AD  24204.70404517  .00002097  00000-0  14981-3 0  9994,2 51131  53.2175  90.1119 0001622 117.3433 242.7724 15.08836497140026,6917.891,95.438,540.878,538.634,0.0
51131.0,STARLINK-3388,PAYLOAD,2024-07-22 21:39:58,15.08839891,0.0001612,53.2175,89.2202,116.7985,243.3172,0.00017349,2.474e-05,0.0,0 STARLINK-3388,1 51131U 22005AD  24204.90276349  .00002474  00000-0  17349-3 0  9996,2 51131  53.2175  89.2202 0001612 116.7985 243.3172 15.08839891138934,6917.881,95.438,540.861,538.631,0.0
51131.0,STARLINK-3388,PAYLOAD,2024-07-23 08:47:39,15.08860318,0.0001113,53.2175,87.147,103.1346,256.977,0.00022322,3.268e-05,0.0,0 STARLINK-3388,1 51131U 22005AD  24205.36642928  .00003268  00000-0  22322-3 0  9996,2 51131  53.2175  87.1470 0001113 103.1346 256.9770 15.08860318140121,6917.818,95.436,540.453,538.913,0.0
51131.0,STARLINK-3388,PAYLOAD,2024-07-23 15:09:13,15.08847591,0.0002723,53.2164,85.9555,84.885,275.2453,0.00022472,3.291e-05,0.0,0 STARLINK-3388,1 51131U 22005AD  24205.63140529  .00003291  00000-0  22472-3 0  9998,2 51131  53.2164  85.9555 0002723  84.8850 275.2453 15.08847591139041,6917.857,95.437,541.606,537.838,0.0
